norad_id,name,regime,epoch,line1,line2,inclination,eccentricity,mean_motion,raan,arg_pericenter,mean_anomaly
33401,IBEX,HAO,14056.06129642,1 33401U 08051A   14056.06129642 -.00003424  00000-0  00000+0 0   872\,2 33401 002.4761 301.6195 6666046 203.7182 358.6630 00.11641366  2321,2.4761,0.6666046,0.11641366,301.6195,203.7182,358.663
33401,IBEX,HAO,14056.08236790,1 33401U 08051A   14056.08236790 -.00003426  00000-0  00000+0 0   880\,2 33401 002.4601 301.5615 6665368 203.8135 359.3669 00.11640040  2323,2.4601,0.6665368,0.1164004,301.5615,203.8135,359.3669
33401,IBEX,HAO,14064.62539430,1 33401U 08051A   14064.62539430 -.00003295  00000-0  00000+0 0   903\,2 33401 000.2362 147.8235 5560555 000.8776 325.7303 00.10289408  2316,0.2362,0.5560555,0.10289408,147.8235,0.8776,325.7303
33401,IBEX,HAO,14075.22356206,1 33401U 08051A   14075.22356206 -.00002355  00000-0  00000+0 0   916\,2 33401 000.4733 132.8829 5582943 016.2275 000.5963 00.10408835  2321,0.4733,0.5582943,0.10408835,132.8829,16.2275,0.5963
33401,IBEX,HAO,14084.81954418,1 33401U 08051A   14084.81954418 -.00002495  00000-0  00000+0 0   937\,2 33401 000.5287 123.8950 5470056 025.2758 359.9891 00.10321617  2343,0.5287,0.5470056,0.10321617,123.895,25.2758,359.9891
33401,IBEX,HAO,14094.73856297,1 33401U 08051A   14094.73856297 -.00002643  00000-0  00000+0 0   941\,2 33401 000.7422 075.0401 5067499 073.6169 001.9354 00.09877256  2353,0.7422,0.5067499,0.09877256,75.0401,73.6169,1.9354
33401,IBEX,HAO,14115.08955737,1 33401U 08051A   14115.08955737 -.00001468  00000-0  00000+0 0   957\,2 33401 001.0833 085.3477 5107003 062.8227 009.9939 00.09949238  2370,1.0833,0.5107003,0.09949238,85.3477,62.8227,9.9939
33401,IBEX,HAO,14124.82475846,1 33401U 08051A   14124.82475846 -.00001715  00000-0  00000+0 0   963\,2 33401 001.3137 093.0865 5147824 054.0443 002.9228 00.09996666  2387,1.3137,0.5147824,0.09996666,93.0865,54.0443,2.9228
33401,IBEX,HAO,14134.77410403,1 33401U 08051A   14134.77410403 -.00000837  00000-0  00000+0 0   971\,2 33401 001.5706 093.2025 5105225 054.7582 358.2781 00.09952610  2394,1.5706,0.5105225,0.0995261,93.2025,54.7582,358.2781
33401,IBEX,HAO,14144.89284482,1 33401U 08051A   14144.89284482 -.00001032  00000-0  00000+0 0   980\,2 33401 003.9369 121.4215 5812290 028.8109 009.4488 00.10831268  2402,3.9369,0.581229,0.10831268,121.4215,28.8109,9.4488
33401,IBEX,HAO,14153.87250850,1 33401U 08051A   14153.87250850 -.00001332  00000-0  00000+0 0   994\,2 33401 004.2186 121.8956 5883455 028.2875 002.4617 00.10928412  2410,4.2186,0.5883455,0.10928412,121.8956,28.2875,2.4617
33401,IBEX,HAO,14162.89395660,1 33401U 08051A   14162.89395660 -.00001023  00000-0  00000+0 0  1005\,2 33401 004.3647 119.8047 5835721 030.7930 355.4883 00.10876941  2420,4.3647,0.5835721,0.10876941,119.8047,30.793,355.4883
33401,IBEX,HAO,14172.17168978,1 33401U 08051A   14172.17168978 -.00001425  00000-0  00000+0 0  1014\,2 33401 007.8658 129.1220 6581105 024.7988 003.7392 00.11936264  2433,7.8658,0.6581105,0.11936264,129.122,24.7988,3.7392
33401,IBEX,HAO,14188.72060806,1 33401U 08051A   14188.72060806 -.00001620  00000-0  00000+0 0  1043\,2 33401 008.1734 128.5212 6569195 026.8376 354.5889 00.12066872  2455,8.1734,0.6569195,0.12066872,128.5212,26.8376,354.5889
33401,IBEX,HAO,14188.72090162,1 33401U 08051A   14188.72090162 -.00001620  00000-0  00000+0 0  1063\,2 33401 008.1748 128.5112 6569063 026.8498 354.5889 00.12066404  2459,8.1748,0.6569063,0.12066404,128.5112,26.8498,354.5889
33401,IBEX,HAO,14188.72129953,1 33401U 08051A   14188.72129953 -.00001620  00000-0  00000+0 0  1020\,2 33401 008.1697 128.5493 6569778 026.8161 354.5888 00.12066194  2459,8.1697,0.6569778,0.12066194,128.5493,26.8161,354.5888
33401,IBEX,HAO,14197.01100724,1 33401U 08051A   14197.01100724 -.00002386  00000-0  00000+0 0  1038\,2 33401 008.4767 128.7789 6664277 026.4682 358.0677 00.12199978  2467,8.4767,0.6664277,0.12199978,128.7789,26.4682,358.0677
33401,IBEX,HAO,14213.38027771,1 33401U 08051A   14213.38027771 -.00002615  00000-0  00000+0 0  1054\,2 33401 008.7190 128.4379 6667845 027.1207 357.5049 00.12188156  2482,8.719,0.6667845,0.12188156,128.4379,27.1207,357.5049
33401,IBEX,HAO,14238.38149506,1 33401U 08051A   14238.38149506 -.00002588  00000-0  00000+0 0  1073\,2 33401 004.5084 201.0964 6139742 297.5131 359.2591 00.11439614  2517,4.5084,0.6139742,0.11439614,201.0964,297.5131,359.2591
33401,IBEX,HAO,14255.93563684,1 33401U 08051A   14255.93563684 -.00002675  00000-0  00000+0 0  1088\,2 33401 004.8140 175.7667 5183649 323.5891 339.8029 00.10387362  2530,4.814,0.5183649,0.10387362,175.7667,323.5891,339.8029
33401,IBEX,HAO,14256.48902675,1 33401U 08051A   14256.48902675 -.00002752  00000-0  00000+0 0  1127\,2 33401 004.8272 174.6651 5184036 324.7350 000.5093 00.10382580  2531,4.8272,0.5184036,0.1038258,174.6651,324.735,0.5093
33401,IBEX,HAO,14285.47902257,1 33401U 08051A   14285.47902257 -.00001989  00000-0  00000+0 0  1147\,2 33401 004.6184 166.7459 4710796 331.3584 359.9228 00.09993581  2560,4.6184,0.4710796,0.09993581,166.7459,331.3584,359.9228
33401,IBEX,HAO,14295.54202544,1 33401U 08051A   14295.54202544 -.00000781  00000-0  00000+0 0  1158\,2 33401 004.6857 164.1824 4701973 334.6714 000.1581 00.10004665  2579,4.6857,0.4701973,0.10004665,164.1824,334.6714,0.1581
33401,IBEX,HAO,14305.55872538,1 33401U 08051A   14305.55872538 -.00000824  00000-0  00000+0 0  1166\,2 33401 004.8054 161.2297 4736132 336.1166 005.5773 00.10042927  2581,4.8054,0.4736132,0.10042927,161.2297,336.1166,5.5773
33401,IBEX,HAO,14315.33921586,1 33401U 08051A   14315.33921586 -.00001389  00000-0  00000+0 0  1180\,2 33401 004.9950 158.6434 4779972 337.4657 003.4923 00.10098085  2599,4.995,0.4779972,0.10098085,158.6434,337.4657,3.4923
33401,IBEX,HAO,14315.38458280,1 33401U 08051A   14315.38458280 -.00001384  00000-0  00000+0 0  1175\,2 33401 004.9869 158.5965 4779929 337.5178 005.1289 00.10098029  2599,4.9869,0.4779929,0.10098029,158.5965,337.5178,5.1289
33401,IBEX,HAO,14325.16886643,1 33401U 08051A   14325.16886643 -.00000565  00000-0  00000+0 0  1192\,2 33401 005.0377 155.7420 4757339 341.8010 357.7798 00.10047010  2601,5.0377,0.4757339,0.1004701,155.742,341.801,357.7798
33401,IBEX,HAO,14344.36344630,1 33401U 08051A   14344.36344630 -.00001488  00000-0  00000+0 0  1207\,2 33401 007.3610 146.5550 5282329 352.0493 358.1014 00.10678371  2628,7.361,0.5282329,0.10678371,146.555,352.0493,358.1014
33401,IBEX,HAO,14363.13786836,1 33401U 08051A   14363.13786836 -.00001441  00000-0  00000+0 0  1211\,2 33401 012.2747 139.7224 5699707 004.4907 353.4822 00.11405108  2640,12.2747,0.5699707,0.11405108,139.7224,4.4907,353.4822
33401,IBEX,HAO,15015.49133651,1 33401U 08051A   15015.49133651 -.00001782  00000-0  00000+0 0  1225\,2 33401 012.7336 138.6563 5686352 006.3260 353.5631 00.11554734  2669,12.7336,0.5686352,0.11554734,138.6563,6.326,353.5631
33401,IBEX,HAO,15015.49384378,1 33401U 08051A   15015.49384378 -.00001927  00000-0  00000+0 0  1231\,2 33401 012.2674 137.5173 5631143 358.6324 353.6432 00.11508260  2669,12.2674,0.5631143,0.1150826,137.5173,358.6324,353.6432
33401,IBEX,HAO,15024.21761109,1 33401U 08051A   15024.21761109 -.00002246  00000-0  00000+0 0  1248\,2 33401 014.8287 136.4259 5968892 001.5385 358.8058 00.12098384  2679,14.8287,0.5968892,0.12098384,136.4259,1.5385,358.8058
33401,IBEX,HAO,15032.41895533,1 33401U 08051A   15032.41895533 -.00003137  00000-0  00000+0 0  1259\,2 33401 015.1961 136.1755 6008669 001.7830 358.6104 00.12189929  2682,15.1961,0.6008669,0.12189929,136.1755,1.783,358.6104
33401,IBEX,HAO,15048.84901584,1 33401U 08051A   15048.84901584 -.00002393  00000-0  00000+0 0  1261\,2 33401 015.4208 135.5270 5969468 002.5024 000.6521 00.12198463  2703,15.4208,0.5969468,0.12198463,135.527,2.5024,0.6521
33401,IBEX,HAO,15048.94964190,1 33401U 08051A   15048.94964190 -.00002638  00000-0  00000+0 0  1299\,2 33401 015.2514 137.6815 6031446 008.3563 000.2529 00.12230456  2701,15.2514,0.6031446,0.12230456,137.6815,8.3563,0.2529
33401,IBEX,HAO,15073.60003083,1 33401U 08051A   15073.60003083 -.00001870  00000-0  00000+0 0  1270\,2 33401 015.5541 133.6725 5826368 004.6010 001.6623 00.11962207  2738,15.5541,0.5826368,0.11962207,133.6725,4.601,1.6623
33401,IBEX,HAO,15082.27289372,1 33401U 08051A   15082.27289372 -.00001956  00000-0  00000+0 0  1286\,2 33401 015.2398 129.9412 5045010 010.7551 354.7806 00.11185799  2740,15.2398,0.504501,0.11185799,129.9412,10.7551,354.7806
33401,IBEX,HAO,15101.07165788,1 33401U 08051A   15101.07165788 -.00001353  00000-0  00000+0 0  1304\,2 33401 014.7603 127.0462 4929449 025.6224 000.5916 00.10976096  2762,14.7603,0.4929449,0.10976096,127.0462,25.6224,0.5916
33401,IBEX,HAO,15111.01712618,1 33401U 08051A   15111.01712618 -.00001824  00000-0  00000+0 0  1313\,2 33401 013.4428 114.3352 4170618 048.7653 351.8316 00.10122899  2779,13.4428,0.4170618,0.10122899,114.3352,48.7653,351.8316
33401,IBEX,HAO,15121.23165458,1 33401U 08051A   15121.23165458 -.00001092  00000-0  00000+0 0  1320\,2 33401 013.7784 113.4372 4338792 050.5873 003.2123 00.09857672  2791,13.7784,0.4338792,0.09857672,113.4372,50.5873,3.2123
33401,IBEX,HAO,15131.01406633,1 33401U 08051A   15131.01406633 -.00001021  00000-0  00000+0 0  1333\,2 33401 013.7237 112.5295 4233304 050.5936 001.7522 00.09852297  2795,13.7237,0.4233304,0.09852297,112.5295,50.5936,1.7522
33401,IBEX,HAO,15151.11484533,1 33401U 08051A   15151.11484533 -.00000745  00000-0  00000+0 0  1344\,2 33401 013.8870 108.8706 3887853 054.4804 359.0863 00.09914520  2812,13.887,0.3887853,0.0991452,108.8706,54.4804,359.0863
33401,IBEX,HAO,15161.11403213,1 33401U 08051A   15161.11403213 -.00001009  00000-0  00000+0 0  1356\,2 33401 014.2617 108.6353 4150031 052.9547 359.8069 00.09713147  2820,14.2617,0.4150031,0.09713147,108.6353,52.9547,359.8069
33401,IBEX,HAO,15171.06633829,1 33401U 08051A   15171.06633829 -.00001738  00000-0  00000+0 0  1369\,2 33401 014.4276 108.7751 4225300 051.6532 000.6726 00.09794593  2834,14.4276,0.42253,0.09794593,108.7751,51.6532,0.6726
